%
(Header)
(Generated by gcodetools from Inkscape.)
(Using default header. To add your own header create file "header" in the output dir.)
M3
(Header end.)
G21 (All units in mm)

(Start cutting path id: path1)
(Change tool to Default tool)

G00 Z5.000000
G00 X70.900842 Y34.162880

G01 Z-0.125000 F1000.0(Penetrate)
G02 X69.700297 Y34.465948 Z-0.125000 I1.215322 J7.343645 F1500.000000
G02 X67.990426 Y35.161540 Z-0.125000 I5.369606 J15.648680
G03 X66.263430 Y35.748043 Z-0.125000 I-3.406737 J-7.195486
G03 X64.188378 Y35.982210 Z-0.125000 I-2.201939 J-10.201255
G02 X61.215553 Y36.341932 Z-0.125000 I0.168440 J13.855934
G02 X59.366076 Y37.104610 Z-0.125000 I1.402022 J6.023682
G03 X58.334791 Y37.505520 Z-0.125000 I-1.599989 J-2.588875
G03 X56.134319 Y37.719340 Z-0.125000 I-2.270478 J-11.936334
G02 X53.923153 Y37.918416 Z-0.125000 I0.076103 J13.224729
G02 X52.799796 Y38.304860 Z-0.125000 I0.654951 J3.729846
G02 X50.596908 Y39.905919 Z-0.125000 I4.593052 J8.635553
G02 X49.743527 Y41.257480 Z-0.125000 I2.341337 J2.423524
G03 X48.947434 Y41.960732 Z-0.125000 I-1.007217 J-0.337966
G03 X45.283890 Y42.161740 Z-0.125000 I-2.518876 J-12.422534
G02 X43.810672 Y42.204929 Z-0.125000 I-0.557117 J6.144218
G02 X42.542399 Y42.573440 Z-0.125000 I0.735423 J4.897753
G03 X41.272351 Y42.971492 Z-0.125000 I-2.392687 J-5.409078
G03 X39.746532 Y43.113950 Z-0.125000 I-1.488378 J-7.699005
G02 X37.418116 Y43.580493 Z-0.125000 I-0.026612 J5.910772
G02 X36.076246 Y44.666380 Z-0.125000 I1.214771 J2.873179
G02 X35.420952 Y46.303656 Z-0.125000 I3.178204 J2.221800
G02 X35.601946 Y47.777000 Z-0.125000 I2.716035 J0.414136
G03 X35.622286 Y48.462220 Z-0.125000 I-0.883462 J0.369136
G03 X35.275699 Y48.709860 Z-0.125000 I-0.348965 J-0.122042
G02 X32.537128 Y49.053431 Z-0.125000 I0.072751 J11.666135
G02 X29.748952 Y50.081564 Z-0.125000 I3.264402 J13.147337
G02 X27.893084 Y51.687512 Z-0.125000 I2.214890 J4.434889
G02 X27.285554 Y53.626318 Z-0.125000 I2.789882 J1.938806
G03 X27.029917 Y54.582992 Z-0.125000 I-1.917904 J0.000000
G03 X26.268572 Y55.393372 Z-0.125000 I-2.095870 J-1.206223
G02 X24.846891 Y56.899895 Z-0.125000 I2.509740 J3.792471
G02 X24.375138 Y58.649739 Z-0.125000 I3.009418 J1.749844
G02 X25.391712 Y61.567658 Z-0.125000 I4.696006 J0.000000
G02 X28.564098 Y63.931925 Z-0.125000 I6.032573 J-4.784043
G03 X29.415553 Y64.479505 Z-0.125000 I-0.990961 J2.476659
G03 X29.875386 Y65.184303 Z-0.125000 I-1.273181 J1.333069
G02 X31.121443 Y67.202092 Z-0.125000 I5.465167 J-1.981298
G02 X33.219930 Y68.712856 Z-0.125000 I5.015732 J-4.754167
G02 X36.152356 Y69.435966 Z-0.125000 I3.306247 J-7.100329
G02 X38.759926 Y68.977569 Z-0.125000 I0.287252 J-6.011700
G02 X40.599093 Y67.697821 Z-0.125000 I-2.051276 J-4.909392
G02 X42.019664 Y65.483610 Z-0.125000 I-5.363190 J-5.003663
G03 X42.624971 Y64.505158 Z-0.125000 I3.260964 J1.340895
G03 X43.038819 Y64.316676 Z-0.125000 I0.414860 J0.362322
G02 X45.577236 Y63.898813 Z-0.125000 I-0.014735 J-8.008590
G02 X47.639522 Y62.769216 Z-0.125000 I-2.132946 J-6.341419
G02 X49.142216 Y60.369565 Z-0.125000 I-2.711108 J-3.368062
G02 X48.885071 Y57.349520 Z-0.125000 I-4.829010 J-1.109798
G02 X47.800847 Y55.849938 Z-0.125000 I-3.741094 J1.563130
G02 X45.933336 Y54.788921 Z-0.125000 I-3.579456 J4.126225
G03 X45.300800 Y54.387418 Z-0.125000 I0.480548 J-1.456074
G03 X45.291742 Y54.111727 Z-0.125000 I0.150884 J-0.142952
G03 X47.311537 Y53.330138 Z-0.125000 I1.710429 J1.419530
G03 X50.179719 Y54.798730 Z-0.125000 I-0.684843 J4.872604
G03 X50.718168 Y55.704881 Z-0.125000 I-1.684926 J1.614262
G03 X50.960522 Y57.250346 Z-0.125000 I-4.897271 J1.559707
G03 X50.733016 Y58.818998 Z-0.125000 I-5.417178 J0.015154
G03 X50.097998 Y60.131866 Z-0.125000 I-4.394024 J-1.315325
G02 X48.125597 Y64.229887 Z-0.125000 I11.583601 J8.098930
G02 X47.393886 Y69.294019 Z-0.125000 I17.158448 J5.064132
G02 X48.617446 Y75.423619 Z-0.125000 I15.965340 J0.000000
G02 X52.156386 Y80.747904 Z-0.125000 I15.422108 J-6.412479
G02 X56.118799 Y83.790831 Z-0.125000 I13.041134 J-12.880461
G02 X60.226177 Y85.348896 Z-0.125000 I7.019289 J-12.311302
G02 X68.343959 Y85.019007 Z-0.125000 I3.406284 J-16.224049
G02 X75.308375 Y80.878087 Z-0.125000 I-4.686022 J-15.808217
G02 X78.949775 Y75.492943 Z-0.125000 I-12.063561 J-12.081020
G02 X80.198306 Y69.408913 Z-0.125000 I-14.335388 J-6.111953
G03 X80.252602 Y67.276574 Z-0.125000 I45.147739 J0.082733
G03 X80.305615 Y67.226101 Z-0.125000 I0.053013 J0.002604
G03 X80.404730 Y67.245914 Z-0.125000 I0.000000 J0.257824
G03 X81.562385 Y67.749457 Z-0.125000 I-15.462259 J37.130509
G02 X84.303739 Y68.349294 Z-0.125000 I2.773935 J-6.113203
G02 X86.985340 Y67.775777 Z-0.125000 I0.031113 J-6.410480
G02 X88.024725 Y67.194580 Z-0.125000 I-2.947732 J-6.491579
G02 X89.134633 Y66.325875 Z-0.125000 I-5.585365 J-8.279578
G01 X90.189343 Y65.373007 Z-0.125000
G01 X91.204365 Y65.797110 Z-0.125000
G02 X92.245461 Y66.069005 Z-0.125000 I1.483001 J-3.549319
G02 X94.001095 Y66.120538 Z-0.125000 I1.177425 J-10.181367
G02 X95.698014 Y65.800017 Z-0.125000 I-0.375087 J-6.638029
G02 X96.789905 Y65.205867 Z-0.125000 I-1.073588 J-3.273351
G02 X98.240881 Y63.464741 Z-0.125000 I-3.652482 J-4.518968
G02 X98.906997 Y61.316341 Z-0.125000 I-5.026450 J-2.735926
G01 X99.054961 Y59.882710 Z-0.125000
G01 X100.410360 Y59.728946 Z-0.125000
G03 X101.768151 Y59.603806 Z-0.125000 I3.649823 J32.172562
G03 X105.147770 Y59.392752 Z-0.125000 I14.135351 J199.185430
G02 X108.511537 Y58.871803 Z-0.125000 I-0.920425 J-17.063563
G02 X108.608640 Y58.496460 Z-0.125000 I-0.055580 J-0.214611
G02 X107.977554 Y58.261261 Z-0.125000 I-0.591396 J0.622567
G02 X99.715236 Y58.907966 Z-0.125000 I6.010299 J129.890806
G01 X98.193882 Y59.075974 Z-0.125000
G01 X98.193882 Y60.381410 Z-0.125000
G03 X96.037991 Y64.357619 Z-0.125000 I-4.744697 J0.000000
G03 X91.306051 Y64.865899 Z-0.125000 I-2.866124 J-4.402148
G01 X89.968794 Y64.357781 Z-0.125000
G01 X88.786762 Y65.506585 Z-0.125000
G03 X85.228762 Y67.329408 Z-0.125000 I-4.749627 J-4.887006
G03 X81.621784 Y66.779043 Z-0.125000 I-0.992636 J-5.589348
G03 X80.210232 Y65.400903 Z-0.125000 I1.563294 J-3.013153
G03 X79.616573 Y63.130634 Z-0.125000 I4.209194 J-2.313427
G03 X80.351925 Y60.740177 Z-0.125000 I4.132355 J-0.037140
G03 X82.186591 Y59.420819 Z-0.125000 I2.773380 J1.921295
G03 X85.582297 Y59.722443 Z-0.125000 I1.309651 J4.521218
G03 X86.816799 Y61.709871 Z-0.125000 I-0.982531 J1.987428
G03 X86.619888 Y62.609590 Z-0.125000 I-2.153936 J-0.000000
G03 X86.154851 Y63.149709 Z-0.125000 I-1.171971 J-0.538800
G03 X85.367519 Y63.378705 Z-0.125000 I-0.767783 J-1.171785
G03 X83.707945 Y63.115559 Z-0.125000 I0.082097 J-5.882515
G02 X83.355902 Y63.399669 Z-0.125000 I-0.080654 J0.260226
G02 X83.786545 Y64.008629 Z-0.125000 I0.737683 J-0.064923
G02 X86.696068 Y63.697960 Z-0.125000 I1.192003 J-2.616162
G02 X87.694488 Y61.097334 Z-0.125000 I-1.556690 J-2.089604
G02 X85.432903 Y58.561652 Z-0.125000 I-3.290052 J0.658011
G02 X80.943502 Y58.923311 Z-0.125000 I-1.807186 J5.611847
G02 X79.505886 Y60.089447 Z-0.125000 I2.027616 J3.968869
G02 X78.829061 Y61.537557 Z-0.125000 I2.583906 J2.089903
G03 X78.638818 Y61.609335 Z-0.125000 I-0.117379 J-0.023103
G03 X77.967740 Y60.876099 Z-0.125000 I1.741174 J-2.267284
G02 X77.179330 Y59.708070 Z-0.125000 I-21.768967 J13.843774
G02 X76.457438 Y58.765294 Z-0.125000 I-14.896133 J10.658335
G03 X75.993134 Y57.423845 Z-0.125000 I1.590109 J-1.301447
G03 X76.513828 Y55.869235 Z-0.125000 I2.740423 J0.053360
G03 X79.548869 Y53.817193 Z-0.125000 I4.333845 J3.139421
G03 X84.438486 Y53.886638 Z-0.125000 I2.313942 J9.249081
G01 X85.931339 Y54.305512 Z-0.125000
G01 X87.192292 Y53.454505 Z-0.125000
G03 X90.915092 Y52.376405 Z-0.125000 I3.533881 J5.236215
G03 X93.743371 Y53.650509 Z-0.125000 I-0.121018 J4.044823
G03 X94.536338 Y55.563439 Z-0.125000 I-2.135218 J2.005931
G03 X93.862418 Y57.398777 Z-0.125000 I-2.610336 J0.082906
G03 X91.440715 Y58.220178 Z-0.125000 I-1.948153 J-1.763055
G03 X89.726748 Y56.640998 Z-0.125000 I0.393324 J-2.146614
G02 X89.204423 Y55.885036 Z-0.125000 I-1.324330 J0.356605
G02 X88.832118 Y55.996096 Z-0.125000 I-0.143383 J0.198906
G02 X88.877350 Y57.151217 Z-0.125000 I1.367830 J0.524884
G02 X90.127718 Y58.715008 Z-0.125000 I3.967604 J-1.890618
G02 X92.341681 Y59.229678 Z-0.125000 I1.656289 J-2.105628
G02 X94.622015 Y57.758493 Z-0.125000 I-0.794904 J-3.734950
G02 X95.333375 Y55.832106 Z-0.125000 I-2.983558 J-2.196279
G02 X94.920933 Y53.666203 Z-0.125000 I-4.259406 J-0.311125
G03 X94.980314 Y53.382193 Z-0.125000 I0.214421 J-0.103381
G03 X95.453603 Y53.208993 Z-0.125000 I0.467768 J0.544973
G03 X97.693874 Y53.891790 Z-0.125000 I-0.031683 J4.120539
G03 X100.379918 Y56.464727 Z-0.125000 I-5.730504 J8.670949
G02 X100.845818 Y56.712824 Z-0.125000 I0.486834 J-0.352720
G02 X107.973358 Y56.729310 Z-0.125000 I3.817187 J-109.551967
G02 X115.087240 Y56.336894 Z-0.125000 I-4.320418 J-143.000179
G02 X115.339928 Y56.138657 Z-0.125000 I-0.023235 J-0.289782
G02 X115.210561 Y55.954380 Z-0.125000 I-0.133051 J-0.044143
G02 X108.339678 Y55.954645 Z-0.125000 I-3.430406 J130.500919
G01 X101.216058 Y56.142451 Z-0.125000
G01 X100.359808 Y55.076962 Z-0.125000
G02 X98.206952 Y53.337869 Z-0.125000 I-5.070454 J4.074735
G02 X95.088890 Y52.431818 Z-0.125000 I-4.016183 J8.002953
G03 X93.040560 Y52.130550 Z-0.125000 I2.279733 J-22.613968
G03 X92.445602 Y51.919090 Z-0.125000 I0.402559 J-2.075332
G02 X90.968437 Y51.540880 Z-0.125000 I-1.508852 J2.819320
G02 X88.393369 Y51.878930 Z-0.125000 I-0.091930 J9.276450
G02 X87.497170 Y52.222946 Z-0.125000 I1.346800 J4.847918
G02 X86.595851 Y52.774117 Z-0.125000 I2.716746 J5.455179
G03 X85.688670 Y53.132760 Z-0.125000 I-1.129987 J-1.531611
G03 X84.490122 Y53.022321 Z-0.125000 I-0.339198 J-2.877708
G02 X81.088762 Y52.611543 Z-0.125000 I-2.823569 J9.092453
G02 X78.199801 Y53.404769 Z-0.125000 I0.441800 J7.266524
G02 X75.679984 Y55.269063 Z-0.125000 I4.452115 J8.652631
G02 X75.175142 Y56.511233 Z-0.125000 I1.275765 J1.242170
G03 X74.918061 Y56.711630 Z-0.125000 I-0.206646 J-0.000000
G03 X73.705911 Y56.141463 Z-0.125000 I0.851775 J-3.384410
G02 X69.036280 Y53.731044 Z-0.125000 I-9.984424 J13.614145
G02 X63.996497 Y52.921187 Z-0.125000 I-5.014501 J15.119156
G03 X61.777515 Y52.832725 Z-0.125000 I-0.042123 J-26.818044
G03 X61.689807 Y52.733291 Z-0.125000 I0.007756 J-0.095241
G03 X61.740063 Y52.556805 Z-0.125000 I0.395677 J0.017275
G03 X62.080788 Y52.036191 Z-0.125000 I3.975343 J2.229929
G03 X62.560786 Y51.734818 Z-0.125000 I0.637523 J0.482453
G03 X64.299854 Y51.590226 Z-0.125000 I1.493370 J7.430831
G02 X67.410646 Y51.205123 Z-0.125000 I0.327837 J-10.108553
G02 X69.004414 Y50.243726 Z-0.125000 I-0.981252 J-3.428425
G02 X69.621227 Y47.623628 Z-0.125000 I-1.913325 J-1.833080
G02 X67.552681 Y45.576635 Z-0.125000 I-2.957459 J0.919939
G02 X63.636152 Y45.187638 Z-0.125000 I-2.958272 J9.873846
G02 X63.354474 Y45.968625 Z-0.125000 I0.042640 J0.456669
G02 X63.593904 Y46.082838 Z-0.125000 I0.281001 J-0.281006
G02 X65.377762 Y46.181445 Z-0.125000 I1.885554 J-17.925875
G03 X68.116208 Y47.233936 Z-0.125000 I-0.023461 J4.149829
G03 X68.704908 Y49.148295 Z-0.125000 I-1.287206 J1.443537
G03 X67.672414 Y50.269735 Z-0.125000 I-1.546988 J-0.388270
G03 X64.008574 Y50.748757 Z-0.125000 I-3.023001 J-8.870566
G01 X61.937376 Y50.606794 Z-0.125000
G01 X61.153675 Y51.745865 Z-0.125000
G03 X56.235903 Y54.012612 Z-0.125000 I-4.365813 J-3.003759
G03 X51.062671 Y50.689074 Z-0.125000 I0.711690 J-6.795726
G02 X50.415247 Y50.057344 Z-0.125000 I-1.489372 J0.878754
G02 X49.255482 Y49.681745 Z-0.125000 I-1.529171 J2.743387
G03 X47.021653 Y49.027307 Z-0.125000 I0.822942 J-6.948637
G03 X45.929084 Y48.066285 Z-0.125000 I1.194481 J-2.459557
G03 X45.314945 Y46.370492 Z-0.125000 I3.272623 J-2.144298
G03 X45.544190 Y44.730765 Z-0.125000 I3.275428 J-0.377961
G03 X46.812082 Y43.208784 Z-0.125000 I3.077786 J1.274860
G03 X48.806202 Y42.619845 Z-0.125000 I1.994120 J3.081526
G03 X49.269360 Y42.861028 Z-0.125000 I-0.000000 J0.565305
G03 X49.510560 Y43.626375 Z-0.125000 I-1.093650 J0.765347
G02 X50.119449 Y45.753998 Z-0.125000 I4.021693 J-0.000000
G02 X52.012665 Y47.639865 Z-0.125000 I4.975986 J-3.102148
G02 X55.783888 Y48.359775 Z-0.125000 I2.827751 J-4.575408
G02 X58.536641 Y46.477475 Z-0.125000 I-0.711787 J-3.994967
G02 X58.925044 Y44.716334 Z-0.125000 I-2.372182 J-1.446562
G02 X58.144423 Y43.035555 Z-0.125000 I-2.914992 J0.332173
G02 X57.151813 Y42.325861 Z-0.125000 I-2.302876 J2.171904
G02 X56.066391 Y42.090675 Z-0.125000 I-1.085422 J2.387110
G02 X54.105394 Y42.716761 Z-0.125000 I0.000000 J3.384112
G02 X53.479310 Y43.930125 Z-0.125000 I0.862719 J1.213364
G02 X53.773497 Y44.160298 Z-0.125000 I0.237137 J0.000000
G02 X54.495807 Y43.678175 Z-0.125000 I-0.308366 J-1.244129
G03 X55.880862 Y42.901012 Z-0.125000 I1.556104 J1.150478
G03 X57.394967 Y43.420915 Z-0.125000 I0.173793 J1.958568
G03 X57.650673 Y45.807363 Z-0.125000 I-1.249120 J1.340765
G03 X54.642917 Y47.381355 Z-0.125000 I-3.010446 J-2.091918
G03 X51.040976 Y45.375195 Z-0.125000 I-0.002596 J-4.231956
G03 X50.882539 Y41.300005 Z-0.125000 I3.521375 J-2.177581
G03 X54.133377 Y38.713266 Z-0.125000 I4.501829 J2.321507
G03 X59.013702 Y39.227575 Z-0.125000 I1.745531 J6.848570
G01 X60.398697 Y39.913005 Z-0.125000
G01 X62.099948 Y39.359885 Z-0.125000
G03 X65.019458 Y39.304122 Z-0.125000 I1.551429 J4.771809
G03 X67.704204 Y40.948075 Z-0.125000 I-1.590098 J5.611006
G01 X69.096808 Y42.448725 Z-0.125000
G01 X70.173860 Y41.843385 Z-0.125000
G03 X71.301465 Y41.470148 Z-0.125000 I1.521824 J2.707712
G03 X73.463983 Y41.422395 Z-0.125000 I1.307422 J10.217935
G03 X75.600874 Y41.752854 Z-0.125000 I-1.277307 J15.333866
G03 X76.003710 Y42.000345 Z-0.125000 I-0.163221 J0.717261
G02 X77.356666 Y43.030162 Z-0.125000 I2.901014 J-2.407648
G02 X79.141849 Y43.413595 Z-0.125000 I1.785183 J-3.964003
G02 X80.889936 Y43.016458 Z-0.125000 I0.000000 J-4.045865
G02 X82.380309 Y41.862075 Z-0.125000 I-1.933236 J-4.035186
G03 X83.704599 Y41.147337 Z-0.125000 I1.566369 J1.318006
G03 X85.674317 Y41.469795 Z-0.125000 I0.425852 J3.575895
G03 X86.726622 Y42.562226 Z-0.125000 I-0.920438 J1.939671
G03 X86.904188 Y44.333475 Z-0.125000 I-2.717072 J1.166909
G03 X86.424134 Y45.128542 Z-0.125000 I-1.373280 J-0.286713
G03 X85.241994 Y45.705955 Z-0.125000 I-1.792377 J-2.170736
G02 X83.834815 Y46.123897 Z-0.125000 I2.268060 J10.214279
G02 X82.228267 Y46.836595 Z-0.125000 I5.268618 J14.043482
G03 X80.109358 Y47.477332 Z-0.125000 I-2.795224 J-5.419804
G03 X78.523243 Y47.250055 Z-0.125000 I-0.354344 J-3.175323
G02 X77.544903 Y46.995235 Z-0.125000 I-1.386913 J3.319333
G02 X75.051348 Y46.853175 Z-0.125000 I-2.493555 J21.813376
G02 X72.712206 Y47.036120 Z-0.125000 I-0.000000 J15.045621
G02 X72.529308 Y47.250055 Z-0.125000 I0.033670 J0.213935
G02 X72.710360 Y47.465872 Z-0.125000 I0.219154 J0.000000
G02 X74.777213 Y47.646925 Z-0.125000 I2.066853 J-11.706783
G03 X76.998532 Y47.805032 Z-0.125000 I0.000000 J15.683261
G03 X78.609518 Y48.195245 Z-0.125000 I-1.230671 J8.601359
G02 X80.577401 Y48.431944 Z-0.125000 I1.529922 J-4.420857
G02 X82.110221 Y47.866065 Z-0.125000 I-0.297625 J-3.165136
G03 X83.942578 Y46.928346 Z-0.125000 I4.230373 J6.007271
G03 X86.979281 Y46.184845 Z-0.125000 I5.532127 J16.021818
G03 X88.278022 Y46.076729 Z-0.125000 I1.483827 J9.969822
G03 X95.348746 Y46.031145 Z-0.125000 I5.447892 J296.637909
G02 X102.414450 Y45.940085 Z-0.125000 I1.052205 J-192.528712
G02 X104.212288 Y45.754095 Z-0.125000 I-0.393211 J-12.583135
G03 X106.009450 Y45.559112 Z-0.125000 I2.355084 J13.327129
G03 X111.370438 Y45.458755 Z-0.125000 I4.908401 J118.962760
G02 X116.535030 Y45.329164 Z-0.125000 I0.339880 J-89.431947
G02 X116.640928 Y45.173985 Z-0.125000 I-0.006379 J-0.118077
G02 X115.723912 Y44.492488 Z-0.125000 I-0.943467 J0.311808
G02 X104.986098 Y44.863635 Z-0.125000 I-2.339118 J87.841753
G03 X100.266101 Y45.167590 Z-0.125000 I-7.196253 J-74.948434
G03 X96.982457 Y45.127005 Z-0.125000 I-1.193711 J-36.276389
G01 X93.695973 Y44.937445 Z-0.125000
G01 X93.694984 Y44.241665 Z-0.125000
G02 X93.586530 Y43.576147 Z-0.125000 I-2.114621 J0.003006
G02 X93.184912 Y42.710995 Z-0.125000 I-4.014242 J1.337684
G03 X92.794361 Y41.890260 Z-0.125000 I3.758571 J-2.291829
G03 X92.833123 Y41.718805 Z-0.125000 I0.155191 J-0.055024
G03 X93.019356 Y41.631406 Z-0.125000 I0.214124 J0.214149
G03 X94.533820 Y41.561515 Z-0.125000 I1.514464 J16.373435
G03 X96.534177 Y42.162895 Z-0.125000 I0.000000 J3.627562
G03 X97.135556 Y43.281305 Z-0.125000 I-0.739288 J1.118410
G02 X97.285861 Y43.792460 Z-0.125000 I0.944319 J0.000000
G02 X97.561378 Y43.942765 Z-0.125000 I0.275517 J-0.177367
G02 X97.796288 Y43.776819 Z-0.125000 I0.000000 J-0.249240
G02 X97.866280 Y43.082865 Z-0.125000 I-1.381491 J-0.489844
G02 X97.704904 Y42.234413 Z-0.125000 I-8.867822 J1.247090
G02 X97.553614 Y41.783855 Z-0.125000 I-2.636083 J0.634475
G03 X98.094054 Y41.028268 Z-0.125000 I0.495756 J-0.216477
G03 X100.376218 Y42.017805 Z-0.125000 I-0.320372 J3.865312
G03 X100.707485 Y42.495958 Z-0.125000 I-0.858440 J0.948560
G03 X100.839718 Y43.190015 Z-0.125000 I-1.755342 J0.694057
G02 X100.981310 Y43.801176 Z-0.125000 I1.389788 J-0.000000
G02 X101.208288 Y43.942765 Z-0.125000 I0.226978 J-0.111136
G02 X101.937463 Y42.906100 Z-0.125000 I0.000000 J-0.774778
G02 X100.045968 Y40.706535 Z-0.125000 I-3.820139 J1.372023
G02 X99.088409 Y40.385247 Z-0.125000 I-1.406772 J2.605124
G02 X97.929306 Y40.381625 Z-0.125000 I-0.591601 J3.854008
G03 X96.735718 Y40.527017 Z-0.125000 I-3.527680 J-23.988335
G03 X95.371895 Y40.628895 Z-0.125000 I-3.012543 J-31.148674
G02 X94.008202 Y40.731546 Z-0.125000 I1.598584 J30.346125
G02 X92.819530 Y40.878785 Z-0.125000 I2.280325 J23.281067
G03 X91.629711 Y41.008589 Z-0.125000 I-2.208163 J-14.722624
G03 X89.291525 Y41.120705 Z-0.125000 I-3.897427 J-56.843524
G03 X86.996288 Y41.003555 Z-0.125000 I-0.401442 J-14.677828
G03 X86.155349 Y40.712705 Z-0.125000 I0.283729 J-2.181487
G02 X85.327884 Y40.362960 Z-0.125000 I-1.685048 J2.832940
G02 X84.399453 Y40.239585 Z-0.125000 I-0.932087 J3.459187
G03 X83.696514 Y39.937932 Z-0.125000 I0.001005 J-0.972195
G03 X83.257712 Y39.040965 Z-0.125000 I1.199576 J-1.142657
G02 X81.339845 Y36.049963 Z-0.125000 I-4.295916 J0.644213
G02 X77.685206 Y35.395605 Z-0.125000 I-2.596598 J3.969302
G03 X76.558455 Y35.497789 Z-0.125000 I-0.940886 J-4.111602
G03 X76.222930 Y35.331105 Z-0.125000 I0.020381 J-0.462064
G02 X74.456998 Y34.255500 Z-0.125000 I-2.447986 J2.031653
G02 X70.900850 Y34.162885 Z-0.125000 I-2.018807 J9.197154
G01 X70.900842 Y34.162880 Z-0.125000
G00 Z5.000000

(End cutting path id: path1)


(Start cutting path id: path1)
(Change tool to Default tool)

G00 Z5.000000
G00 X74.730164 Y35.374160

G01 Z-0.125000 F1000.0(Penetrate)
G03 X76.564600 Y38.484929 Z-0.125000 I-1.390736 J2.916396 F1500.000000
G03 X74.421052 Y40.503180 Z-0.125000 I-2.143548 J-0.129186
G03 X72.856360 Y40.063878 Z-0.125000 I0.000000 J-3.006187
G03 X71.989982 Y39.021280 Z-0.125000 I1.088626 J-1.785897
G02 X71.359946 Y38.533036 Z-0.125000 I-0.714804 J0.271767
G02 X71.043234 Y38.915680 Z-0.125000 I-0.032919 J0.295145
G01 X71.369534 Y39.974020 Z-0.125000
G03 X71.319187 Y40.345590 Z-0.125000 I-0.426294 J0.131434
G03 X71.031531 Y40.503180 Z-0.125000 I-0.287656 J-0.183740
G02 X70.558013 Y40.590808 Z-0.125000 I-0.000000 J1.323198
G02 X69.924882 Y40.927290 Z-0.125000 I1.049711 J2.739051
G03 X69.365531 Y40.986880 Z-0.125000 I-0.333588 J-0.476266
G03 X68.410095 Y40.289090 Z-0.125000 I0.998697 J-2.370449
G02 X65.256118 Y38.323234 Z-0.125000 I-4.693930 J4.017825
G02 X61.669653 Y38.554370 Z-0.125000 I-1.440064 J5.595554
G03 X60.599769 Y38.790475 Z-0.125000 I-1.250939 J-3.126404
G03 X59.953537 Y38.646770 Z-0.125000 I-0.066102 J-1.227624
G03 X59.813669 Y38.136871 Z-0.125000 I0.171954 J-0.321301
G03 X60.772016 Y37.293530 Z-0.125000 I1.817710 J1.099401
G03 X61.945989 Y36.952216 Z-0.125000 I1.857370 J4.198914
G03 X64.232544 Y36.772650 Z-0.125000 I2.405195 J15.979198
G02 X66.517081 Y36.606307 Z-0.125000 I-0.128576 J-17.536835
G02 X67.358870 Y36.338360 Z-0.125000 I-0.358973 J-2.584024
G03 X71.874578 Y34.920772 Z-0.125000 I6.287509 J12.127624
G03 X74.730164 Y35.374140 Z-0.125000 I0.661226 J5.054994
G01 X74.730164 Y35.374160 Z-0.125000
G00 Z5.000000

(End cutting path id: path1)


(Start cutting path id: path1)
(Change tool to Default tool)

G00 Z5.000000
G00 X80.570730 Y36.671000

G01 Z-0.125000 F1000.0(Penetrate)
G03 X81.845532 Y37.799874 Z-0.125000 I-1.313004 J2.766967 F1500.000000
G03 X82.318883 Y39.432670 Z-0.125000 I-2.579438 J1.632796
G03 X80.475189 Y42.212166 Z-0.125000 I-3.016989 J0.000000
G03 X76.900521 Y41.719890 Z-0.125000 I-1.373232 J-3.253141
G01 X76.139791 Y41.113300 Z-0.125000
G01 X76.776361 Y40.219320 Z-0.125000
G02 X77.215443 Y39.264708 Z-0.125000 I-2.293810 J-1.633342
G02 X77.377810 Y37.797600 Z-0.125000 I-5.393057 J-1.339398
G01 X77.342690 Y36.269850 Z-0.125000
G01 X78.534030 Y36.269850 Z-0.125000
G03 X79.699760 Y36.383560 Z-0.125000 I-0.000000 J6.032243
G03 X80.570731 Y36.671000 Z-0.125000 I-0.714842 J3.629326
G01 X80.570730 Y36.671000 Z-0.125000
G00 Z5.000000

(End cutting path id: path1)


(Start cutting path id: path1)
(Change tool to Default tool)

G00 Z5.000000
G00 X91.390830 Y42.113230

G01 Z-0.125000 F1000.0(Penetrate)
G03 X92.493745 Y43.064623 Z-0.125000 I-1.076725 J2.363188 F1500.000000
G03 X92.902215 Y44.446610 Z-0.125000 I-2.133619 J1.381987
G03 X92.677240 Y44.776124 Z-0.125000 I-0.353802 J0.000000
G03 X91.483935 Y45.001100 Z-0.125000 I-1.193305 J-3.052245
G02 X90.068668 Y45.045206 Z-0.125000 I-0.000000 J22.728693
G02 X88.879974 Y45.163620 Z-0.125000 I1.005919 J16.123354
G01 X87.694292 Y45.326130 Z-0.125000
G01 X87.820134 Y43.774550 Z-0.125000
G03 X88.058004 Y42.289337 Z-0.125000 I9.634415 J0.781379
G03 X88.241284 Y42.028590 Z-0.125000 I0.421901 J0.101769
G03 X89.487916 Y41.673301 Z-0.125000 I1.188543 J1.805615
G03 X91.390830 Y42.113190 Z-0.125000 I-0.131893 J4.906404
G01 X91.390830 Y42.113230 Z-0.125000
G00 Z5.000000

(End cutting path id: path1)


(Start cutting path id: path1)
(Change tool to Default tool)

G00 Z5.000000
G00 X67.596318 Y54.151764

G01 Z-0.125000 F1000.0(Penetrate)
G03 X73.126951 Y56.758208 Z-0.125000 I-4.087884 J15.845082 F1500.000000
G03 X76.994721 Y60.980161 Z-0.125000 I-8.435709 J11.610656
G03 X78.658301 Y64.865314 Z-0.125000 I-13.337732 J8.009812
G03 X79.257673 Y69.210476 Z-0.125000 I-16.158449 J4.442817
G03 X79.105229 Y72.357690 Z-0.125000 I-29.066628 J0.169379
G03 X78.780815 Y73.840684 Z-0.125000 I-6.711561 J-0.691215
G03 X77.141718 Y77.349817 Z-0.125000 I-16.870946 J-5.742951
G03 X74.910550 Y80.212361 Z-0.125000 I-13.375283 J-8.124374
G03 X67.945376 Y84.330730 Z-0.125000 I-11.269686 J-11.110715
G03 X59.986996 Y84.430515 Z-0.125000 I-4.164555 J-14.733925
G03 X56.154927 Y82.876666 Z-0.125000 I3.810967 J-14.900730
G03 X52.816475 Y80.324345 Z-0.125000 I7.893516 J-13.784288
G03 X48.466380 Y71.842415 Z-0.125000 I10.995901 J-10.995899
G03 X49.852592 Y62.231943 Z-0.125000 I15.922957 J-2.608486
G03 X52.663036 Y58.241714 Z-0.125000 I13.405644 J6.457161
G03 X56.522010 Y55.468165 Z-0.125000 I10.045324 J9.905186
G03 X62.223451 Y53.790782 Z-0.125000 I7.801413 J15.988759
G03 X67.596318 Y54.151764 Z-0.125000 I1.724091 J14.504023
G01 X67.596318 Y54.151764 Z-0.125000
G00 Z5.000000

(End cutting path id: path1)


(Start cutting path id: path1)
(Change tool to Default tool)

G00 Z5.000000
G00 X45.144928 Y49.924720

G01 Z-0.125000 F1000.0(Penetrate)
G03 X49.104328 Y50.622618 Z-0.125000 I-0.457755 J14.177422 F1500.000000
G03 X50.955364 Y51.828763 Z-0.125000 I-1.333877 J4.070500
G02 X53.052403 Y53.599697 Z-0.125000 I7.468819 J-6.717086
G02 X55.000656 Y54.388891 Z-0.125000 I3.150518 J-4.978174
G03 X55.735113 Y54.801361 Z-0.125000 I-0.285148 J1.367877
G03 X55.625075 Y55.055267 Z-0.125000 I-0.110038 J0.103109
G02 X55.410306 Y55.118324 Z-0.125000 I-0.000000 J0.397277
G02 X53.772249 Y56.245892 Z-0.125000 I16.951929 J26.380259
G03 X52.142812 Y57.399713 Z-0.125000 I-32.105148 J-43.611726
G03 X52.023351 Y57.436517 Z-0.125000 I-0.119461 J-0.175476
G03 X51.951201 Y57.377121 Z-0.125000 I0.000000 J-0.073520
G03 X51.891802 Y56.764518 Z-0.125000 I3.129320 J-0.612603
G02 X51.392398 Y54.913563 Z-0.125000 I-3.679826 J-0.000000
G02 X49.971519 Y53.464973 Z-0.125000 I-3.562779 J2.073480
G02 X46.574798 Y52.628757 Z-0.125000 I-3.026443 J4.976584
G02 X44.296164 Y53.826494 Z-0.125000 I0.200519 J3.147839
G03 X43.002383 Y54.596387 Z-0.125000 I-1.646804 J-1.295377
G03 X41.940917 Y54.229084 Z-0.125000 I-0.196497 J-1.149556
G02 X40.417075 Y53.152334 Z-0.125000 I-3.164644 J2.862015
G02 X37.791757 Y52.500636 Z-0.125000 I-3.448460 J8.278071
G02 X34.931919 Y52.758098 Z-0.125000 I-0.729270 J7.911408
G02 X32.983592 Y53.839046 Z-0.125000 I1.282851 J4.608571
G03 X31.937188 Y54.456668 Z-0.125000 I-1.983804 J-2.165808
G03 X31.079020 Y54.480466 Z-0.125000 I-0.467946 J-1.389474
G02 X30.145786 Y54.310949 Z-0.125000 I-1.408829 J5.102359
G02 X29.182629 Y54.309385 Z-0.125000 I-0.490407 J5.436073
G03 X28.515981 Y54.071896 Z-0.125000 I-0.073691 J-0.847550
G03 X28.242323 Y53.395447 Z-0.125000 I0.630437 J-0.648623
G03 X28.413618 Y52.453718 Z-0.125000 I3.218928 J0.099061
G03 X28.771489 Y51.845938 Z-0.125000 I1.654811 J0.565130
G03 X31.932405 Y50.056610 Z-0.125000 I4.275967 J3.867058
G03 X38.794928 Y49.870000 Z-0.125000 I3.983257 J20.206097
G02 X40.075830 Y49.863601 Z-0.125000 I0.618581 J-4.380999
G02 X40.911595 Y49.549560 Z-0.125000 I-0.321821 J-2.125612
G03 X41.716460 Y49.287759 Z-0.125000 I0.906360 J1.418342
G03 X42.499095 Y49.453660 Z-0.125000 I0.090684 J1.501180
G02 X43.326861 Y49.734542 Z-0.125000 I1.337296 J-2.580875
G02 X45.144928 Y49.924750 Z-0.125000 I2.228377 J-12.515616
G01 X45.144928 Y49.924720 Z-0.125000
G00 Z5.000000

(End cutting path id: path1)


(Start cutting path id: path1)
(Change tool to Default tool)

G00 Z5.000000
G00 X40.319207 Y45.545530

G01 Z-0.125000 F1000.0(Penetrate)
G02 X40.347213 Y47.058594 Z-0.125000 I6.931202 J0.628500 F1500.000000
G02 X40.601233 Y47.746490 Z-0.125000 I1.620884 J-0.207697
G03 X40.588701 Y48.443907 Z-0.125000 I-0.518158 J0.339510
G03 X39.665856 Y49.067930 Z-0.125000 I-1.289718 J-0.912923
G03 X37.739896 Y48.948473 Z-0.125000 I-0.767305 J-3.214510
G03 X36.538251 Y47.897090 Z-0.125000 I0.793274 J-2.119031
G03 X36.544479 Y45.555074 Z-0.125000 I2.177240 J-1.165227
G03 X38.666444 Y43.970870 Z-0.125000 I2.775547 J1.504475
G03 X39.853841 Y44.307606 Z-0.125000 I0.274102 J1.295327
G03 X40.319207 Y45.545530 Z-0.125000 I-1.048630 J1.100640
G01 X40.319207 Y45.545530 Z-0.125000
G00 Z5.000000

(End cutting path id: path1)


(Start cutting path id: path1)
(Change tool to Default tool)

G00 Z5.000000
G00 X45.346320 Y43.041730

G01 Z-0.125000 F1000.0(Penetrate)
G03 X45.385084 Y43.213170 Z-0.125000 I-0.116410 J0.116423 F1500.000000
G03 X44.994531 Y44.033920 Z-0.125000 I-4.149155 J-1.471072
G02 X44.429779 Y46.059399 Z-0.125000 I3.298132 J2.011071
G02 X45.009731 Y48.109950 Z-0.125000 I3.967390 J-0.014798
G01 X45.534020 Y48.969850 Z-0.125000
G01 X44.541593 Y48.969850 Z-0.125000
G03 X41.370821 Y46.667341 Z-0.125000 I-0.000000 J-3.334480
G03 X42.736092 Y43.422380 Z-0.125000 I2.559221 J-0.832934
G03 X44.673184 Y42.818440 Z-0.125000 I2.870978 J5.799942
G03 X45.346315 Y43.041730 Z-0.125000 I0.114088 J0.782327
G01 X45.346320 Y43.041730 Z-0.125000
G00 Z5.000000

(End cutting path id: path1)


(Start cutting path id: path1)
(Change tool to Default tool)

G00 Z5.000000
G00 X39.240394 Y53.612470

G01 Z-0.125000 F1000.0(Penetrate)
G03 X40.388314 Y54.110783 Z-0.125000 I-2.489371 J7.305883 F1500.000000
G03 X41.026749 Y54.566922 Z-0.125000 I-1.429931 J2.676266
G03 X41.290792 Y55.125387 Z-0.125000 I-0.568876 J0.610617
G03 X41.096379 Y55.678989 Z-0.125000 I-0.751435 J0.047050
G02 X40.151328 Y57.888817 Z-0.125000 I2.713128 J2.467285
G02 X40.820979 Y59.592117 Z-0.125000 I2.121310 J0.149294
G02 X41.738453 Y60.142906 Z-0.125000 I1.746409 J-1.869536
G02 X42.869120 Y60.293583 Z-0.125000 I0.941850 J-2.750015
G02 X43.927756 Y60.040389 Z-0.125000 I-0.209276 J-3.214752
G02 X44.172882 Y59.735407 Z-0.125000 I-0.163834 J-0.382679
G02 X44.030741 Y59.488824 Z-0.125000 I-0.214320 J-0.040716
G02 X43.314198 Y59.434343 Z-0.125000 I-0.460125 J1.312347
G03 X41.369649 Y58.758945 Z-0.125000 I-0.382113 J-2.036841
G03 X41.152379 Y56.953370 Z-0.125000 I1.219477 J-1.062603
G03 X42.302136 Y55.820992 Z-0.125000 I2.307963 J1.193494
G03 X44.432759 Y55.319851 Z-0.125000 I2.130623 J4.278649
G03 X46.504959 Y55.890299 Z-0.125000 I-0.000000 J4.048946
G03 X47.985900 Y57.436517 Z-0.125000 I-2.056300 J3.451807
G03 X48.458941 Y59.550882 Z-0.125000 I-3.524180 J1.898554
G03 X47.767319 Y61.485042 Z-0.125000 I-3.592762 J-0.193974
G03 X46.415644 Y62.565177 Z-0.125000 I-2.676122 J-1.963077
G03 X43.384509 Y63.392500 Z-0.125000 I-4.367562 J-10.035443
G02 X42.125028 Y63.878439 Z-0.125000 I0.338697 J2.753015
G02 X41.433774 Y64.767673 Z-0.125000 I1.112472 J1.578083
G03 X39.323505 Y67.581521 Z-0.125000 I-5.972564 J-2.280943
G03 X36.445764 Y68.549018 Z-0.125000 I-2.877741 J-3.796056
G03 X33.048452 Y67.612332 Z-0.125000 I0.000000 J-6.629280
G03 X30.821848 Y65.192693 Z-0.125000 I2.957794 J-4.956129
G02 X29.948253 Y63.924939 Z-0.125000 I-4.678207 J2.288831
G02 X28.900813 Y63.137688 Z-0.125000 I-2.755755 J2.576104
G03 X26.186318 Y61.060435 Z-0.125000 I4.247787 J-8.363126
G03 X25.425677 Y59.288601 Z-0.125000 I2.215574 J-2.000323
G03 X26.095137 Y56.938499 Z-0.125000 I3.512930 J-0.269695
G03 X28.248849 Y55.429929 Z-0.125000 I3.292579 J2.408994
G03 X32.021239 Y55.738873 Z-0.125000 I1.481491 J5.096147
G03 X33.370969 Y57.881100 Z-0.125000 I-1.025155 J2.142227
G03 X32.035180 Y60.074768 Z-0.125000 I-2.469145 J0.000000
G03 X30.134566 Y59.553184 Z-0.125000 I-0.667382 J-1.291751
G02 X29.473028 Y59.127066 Z-0.125000 I-0.782970 J0.488973
G02 X29.137636 Y59.420892 Z-0.125000 I-0.038990 J0.293826
G02 X29.640775 Y60.372962 Z-0.125000 I1.152353 J0.000000
G02 X31.271696 Y60.876101 Z-0.125000 I1.630921 J-2.391742
G02 X32.846103 Y60.485689 Z-0.125000 I0.000000 J-3.369751
G02 X33.765105 Y59.558480 Z-0.125000 I-1.019784 J-1.929794
G02 X34.164147 Y57.745984 Z-0.125000 I-3.199695 J-1.654626
G02 X33.606089 Y55.933637 Z-0.125000 I-3.757183 J0.164821
G03 X33.317665 Y55.054410 Z-0.125000 I1.679091 J-1.037735
G03 X33.493558 Y54.536821 Z-0.125000 I0.686693 J-0.055322
G03 X35.741846 Y53.316283 Z-0.125000 I2.861072 J2.589235
G03 X39.240392 Y53.612470 Z-0.125000 I1.154268 J7.176265
G01 X39.240394 Y53.612470 Z-0.125000
G00 Z5.000000

(End cutting path id: path1)


(Start cutting path id: path1)
(Change tool to Default tool)

G00 Z5.000000
G00 X126.504300 Y45.174010

G01 Z-0.125000 F1000.0(Penetrate)
G02 X122.255306 Y45.786964 Z-0.125000 I4.217139 J44.266698 F1500.000000
G02 X120.451390 Y46.347900 Z-0.125000 I1.639410 J8.453254
G03 X118.421043 Y46.825822 Z-0.125000 I-2.326714 J-5.332829
G03 X116.101540 Y46.569760 Z-0.125000 I-0.370957 J-7.273207
G02 X113.925486 Y46.400663 Z-0.125000 I-1.519938 J5.473564
G02 X107.851170 Y47.529070 Z-0.125000 I5.257527 J45.215226
G03 X105.186742 Y47.948926 Z-0.125000 I-3.528420 J-13.727319
G03 X102.162630 Y47.876480 Z-0.125000 I-1.086667 J-17.793297
G02 X99.114656 Y47.639831 Z-0.125000 I-5.289144 J48.375855
G02 X94.886590 Y47.541030 Z-0.125000 I-4.289268 J93.037116
G02 X90.686324 Y47.795836 Z-0.125000 I-0.025510 J34.325796
G02 X86.905734 Y48.518630 Z-0.125000 I3.497028 J28.539921
G03 X81.846503 Y49.354980 Z-0.125000 I-7.059981 J-26.986801
G03 X78.923281 Y49.092640 Z-0.125000 I-0.655418 J-9.114471
G02 X72.900247 Y48.365872 Z-0.125000 I-5.775667 J22.544306
G02 X71.801136 Y49.168240 Z-0.125000 I0.012448 J1.171036
G02 X71.908200 Y49.343602 Z-0.125000 I0.127752 J0.042367
G02 X74.028606 Y49.514740 Z-0.125000 I2.217807 J-14.257166
G03 X76.357711 Y49.610430 Z-0.125000 I-0.239635 J34.226092
G03 X77.688675 Y49.790790 Z-0.125000 I-0.846584 J11.248420
G02 X79.018663 Y49.996676 Z-0.125000 I3.193544 J-16.231037
G02 X81.260550 Y50.195761 Z-0.125000 I5.212471 J-45.975001
G02 X83.488218 Y50.117287 Z-0.125000 I0.720629 J-11.201245
G02 X87.115656 Y49.402450 Z-0.125000 I-4.146111 J-30.600561
G03 X92.985426 Y48.399184 Z-0.125000 I8.809385 J33.868082
G03 X98.590757 Y48.435110 Z-0.125000 I2.604742 J30.898892
G02 X105.290457 Y48.684622 Z-0.125000 I5.437228 J-55.923846
G02 X108.810080 Y48.205440 Z-0.125000 I-0.354391 J-15.768544
G03 X113.305153 Y47.457276 Z-0.125000 I6.731879 J26.568455
G03 X117.376170 Y47.504010 Z-0.125000 I1.785463 J21.804669
G02 X119.203240 Y47.477990 Z-0.125000 I0.804639 J-7.659412
G02 X121.344920 Y46.972430 Z-0.125000 I-1.482856 J-11.070882
G03 X123.498284 Y46.444061 Z-0.125000 I4.008796 J11.685628
G03 X126.967320 Y46.118330 Z-0.125000 I4.581935 J30.162111
G02 X130.317173 Y45.840062 Z-0.125000 I-1.322024 J-36.217042
G02 X130.473050 Y45.662610 Z-0.125000 I-0.023068 J-0.177452
G02 X130.339817 Y45.447882 Z-0.125000 I-0.239652 J-0.000000
G02 X129.480860 Y45.170870 Z-0.125000 I-1.357494 J2.739076
G02 X128.401292 Y45.082800 Z-0.125000 I-1.072916 J6.491126
G02 X126.504300 Y45.173870 Z-0.125000 I0.020455 J20.228809
G01 X126.504300 Y45.174010 Z-0.125000
G00 Z5.000000

(End cutting path id: path1)


(Footer)
M5
G00 X0.0000 Y0.0000
M2
(Using default footer. To add your own footer create file "footer" in the output dir.)
(end)
%